OBJECT_NAME,OBJECT_ID,EPOCH,MEAN_MOTION,ECCENTRICITY,INCLINATION,RA_OF_ASC_NODE,ARG_OF_PERICENTER,MEAN_ANOMALY,EPHEMERIS_TYPE,CLASSIFICATION_TYPE,NORAD_CAT_ID,ELEMENT_SET_NO,REV_AT_EPOCH,BSTAR,MEAN_MOTION_DOT,MEAN_MOTION_DDOT
QIANFAN-155,2026-108L,2026-07-21T06:56:45.431808,13.58490545,.00222278,89.0130,18.6206,12.6400,347.5308,0,U,69114,999,904,.22005224E-4,.28E-6,0
QIANFAN-156,2026-108M,2026-07-20T22:07:48.105984,13.56459897,.00198136,89.0117,18.6418,14.4542,345.7175,0,U,69115,999,901,-.26998543E+1,-.177918E-1,0
QIANFAN-157,2026-108N,2026-07-20T22:56:14.623584,13.65534641,.00216729,89.0097,18.5850,22.2829,337.9267,0,U,69116,999,904,-.24178459E+1,-.1838827E-1,0
QIANFAN-158,2026-108P,2026-07-20T22:11:29.772096,13.57670639,.00215097,89.0104,18.6163,10.1728,349.9857,0,U,69117,999,902,-.26276361E+1,-.1766443E-1,0
QIANFAN-159,2026-108Q,2026-07-20T22:07:09.558624,13.53859862,.00159749,89.0092,18.6305,12.3425,347.8116,0,U,69118,999,901,-.28406656E+1,-.179478E-1,0
QIANFAN-160,2026-108R,2026-07-20T23:15:46.376928,13.50084563,.00228912,89.0117,18.6429,9.5417,350.6164,0,U,69119,999,901,-.31516097E+1,-.1872839E-1,0
QIANFAN-161,2026-108S,2026-07-20T22:47:21.367968,13.66699210,.002257,89.0103,18.5883,24.2329,335.9888,0,U,69120,999,904,-.26696474E+1,-.2075324E-1,0
QIANFAN-162,2026-108T,2026-07-20T23:22:15.270240,13.58076441,.00202102,89.0102,18.6064,7.0687,353.0749,0,U,69121,999,902,-.2874137E+1,-.193208E-1,0
SMILE,2026-109A,2026-07-13T23:01:31.580256,0.47500629,.83137076,70.0512,206.6048,286.9544,0.1879,0,U,69123,999,6,0,.936E-5,0
STARLINK-37726,2026-110A,2026-07-21T12:00:49.240224,15.33457218,.00016366,97.2870,38.5051,87.4788,272.6642,0,U,69124,999,1087,.48263738E-3,.15545E-3,0
STARLINK-37722,2026-110B,2026-07-21T02:21:20.988576,15.33447944,.00013276,97.2866,37.9872,108.4509,251.6878,0,U,69125,999,1080,.34275188E-3,.11007E-3,0
STARLINK-37715,2026-110C,2026-07-21T11:56:54.366144,15.33458651,.00018268,97.2867,38.3631,84.5397,275.6054,0,U,69126,999,1086,.42779834E-3,.13767E-3,0
STARLINK-37706,2026-110D,2026-07-21T11:52:57.838368,15.33482959,.00013396,97.2861,38.3672,86.5876,273.5520,0,U,69127,999,1086,.56351006E-3,.18183E-3,0
STARLINK-37723,2026-110E,2026-07-21T11:49:04.404576,15.33459450,.00021882,97.2858,38.3707,89.0757,271.0737,0,U,69128,999,1086,.49321976E-3,.15889E-3,0
STARLINK-37720,2026-110F,2026-07-21T06:59:21.463296,15.33415852,.0001681,97.2863,38.1809,91.4888,268.6547,0,U,69129,999,1083,.49667939E-4,.1527E-4,0
STARLINK-37533,2026-110G,2026-07-21T02:13:31.427904,15.33448979,.00018675,97.2862,37.9960,97.0136,263.1319,0,U,69130,999,1080,.37646905E-3,.121E-3,0
STARLINK-37530,2026-110H,2026-07-21T02:09:36.979776,15.33445675,.00029552,97.2856,38.0003,88.6752,271.4830,0,U,69131,999,1080,.28501544E-3,.9138E-4,0
STARLINK-37660,2026-110J,2026-07-21T02:05:41.698752,15.33445221,.00015906,97.2861,38.0001,93.6443,266.4982,0,U,69132,999,1080,.42592709E-3,.13701E-3,0
STARLINK-37633,2026-110K,2026-07-21T02:01:46.860960,15.33447487,.00017004,97.2852,38.0063,93.1744,266.9694,0,U,69133,999,1080,.41484587E-3,.13343E-3,0
STARLINK-37361,2026-110L,2026-07-21T01:57:51.779520,15.33448201,.00015369,97.2854,38.0117,98.4917,261.6500,0,U,69134,999,1080,.33322726E-3,.10699E-3,0
STARLINK-37372,2026-110M,2026-07-21T06:35:51.079200,15.33451111,.00017198,97.2876,38.2062,91.1069,269.0371,0,U,69135,999,1083,.40125971E-3,.12904E-3,0
STARLINK-37531,2026-110N,2026-07-21T06:31:56.033184,15.33448737,.00015796,97.2875,38.2119,93.5462,266.5962,0,U,69136,999,1083,.30902324E-3,.9916E-4,0
STARLINK-37662,2026-110P,2026-07-21T12:43:51.845088,15.33499746,.0001524,97.2848,38.4704,160.8686,199.2615,0,U,69137,999,1087,.10318877E-2,.33444E-3,0
STARLINK-37658,2026-110Q,2026-07-21T12:39:58.325760,15.33453336,.00016515,97.2873,38.4741,94.2860,265.8571,0,U,69138,999,1087,.47489887E-3,.15292E-3,0
STARLINK-37659,2026-110R,2026-07-21T07:54:09.633024,15.33448041,.00023363,97.2859,38.2837,67.5910,292.5580,0,U,69139,999,1084,.25208408E-3,.8073E-4,0
STARLINK-37653,2026-110S,2026-07-21T01:34:22.033920,15.33451463,.00008302,97.2830,38.0295,93.7648,266.3689,0,U,69140,999,1080,.46931047E-3,.15109E-3,0
STARLINK-37654,2026-110T,2026-07-21T06:12:21.705984,15.33442931,.00019606,97.2863,38.2282,92.3084,267.8383,0,U,69141,999,1083,.30665873E-3,.9838E-4,0
STARLINK-37655,2026-110U,2026-07-21T12:24:18.473472,15.33470071,.00021218,97.2866,38.4899,86.4316,273.7170,0,U,69142,999,1087,.4670296E-3,.15045E-3,0
STARLINK-37636,2026-110V,2026-07-21T02:56:35.467872,15.33441703,.0001552,97.2866,38.1091,91.6462,268.4959,0,U,69143,999,1081,.11584418E-3,.3666E-4,0
STARLINK-37638,2026-110W,2026-07-21T02:52:40.329408,15.33458958,.00008761,97.2857,38.1124,109.7285,250.4053,0,U,69144,999,1081,.563744E-3,.18176E-3,0
