{"epoch":1784710044,"count":18256,"objects":[{"id":"69114","name":"QIANFAN-155","type":"PAYLOAD","l1":"1 69114U 26108L   26202.28941472  .00000028  00000-0  22005-4 0  9990","l2":"2 69114  89.0130  18.6206 0022228  12.6400 347.5308 13.58490545  9043"},{"id":"69115","name":"QIANFAN-156","type":"PAYLOAD","l1":"1 69115U 26108M   26201.92208456 -.01779180  00000-0 -26999+1 0  9996","l2":"2 69115  89.0117  18.6418 0019814  14.4542 345.7175 13.56459897  9010"},{"id":"69116","name":"QIANFAN-157","type":"PAYLOAD","l1":"1 69116U 26108N   26201.95572481 -.01838827  00000-0 -24178+1 0  9993","l2":"2 69116  89.0097  18.5850 0021673  22.2829 337.9267 13.65534641  9047"},{"id":"69117","name":"QIANFAN-158","type":"PAYLOAD","l1":"1 69117U 26108P   26201.92465014 -.01766443  00000-0 -26276+1 0  9999","l2":"2 69117  89.0104  18.6163 0021510  10.1728 349.9857 13.57670639  9024"},{"id":"69118","name":"QIANFAN-159","type":"PAYLOAD","l1":"1 69118U 26108Q   26201.92163841 -.01794780  00000-0 -28407+1 0  9996","l2":"2 69118  89.0092  18.6305 0015975  12.3425 347.8116 13.53859862  9012"},{"id":"69119","name":"QIANFAN-160","type":"PAYLOAD","l1":"1 69119U 26108R   26201.96928677 -.01872839  00000-0 -31516+1 0  9994","l2":"2 69119  89.0117  18.6429 0022891   9.5417 350.6164 13.50084563  9012"},{"id":"69120","name":"QIANFAN-161","type":"PAYLOAD","l1":"1 69120U 26108S   26201.94955287 -.02075324  00000-0 -26696+1 0  9999","l2":"2 69120  89.0103  18.5883 0022570  24.2329 335.9888 13.66699210  9042"},{"id":"69121","name":"QIANFAN-162","type":"PAYLOAD","l1":"1 69121U 26108T   26201.97378785 -.01932080  00000-0 -28741+1 0  9998","l2":"2 69121  89.0102  18.6064 0020210   7.0687 353.0749 13.58076441  9020"},{"id":"69123","name":"SMILE","type":"PAYLOAD","l1":"1 69123U 26109A   26194.95939329  .00000936  00000-0  00000-0 0  9998","l2":"2 69123  70.0512 206.6048 8313708 286.9544   0.1879  0.47500629    66"},{"id":"69124","name":"STARLINK-37726","type":"PAYLOAD","l1":"1 69124U 26110A   26202.50056991  .00015545  00000-0  48264-3 0  9996","l2":"2 69124  97.2870  38.5051 0001637  87.4788 272.6642 15.33457218 10872"},{"id":"69125","name":"STARLINK-37722","type":"PAYLOAD","l1":"1 69125U 26110B   26202.09815959  .00011007  00000-0  34275-3 0  9994","l2":"2 69125  97.2866  37.9872 0001328 108.4509 251.6878 15.33447944 10800"},{"id":"69126","name":"STARLINK-37715","type":"PAYLOAD","l1":"1 69126U 26110C   26202.49785146  .00013767  00000-0  42780-3 0  9998","l2":"2 69126  97.2867  38.3631 0001827  84.5397 275.6054 15.33458651 10868"},{"id":"69127","name":"STARLINK-37706","type":"PAYLOAD","l1":"1 69127U 26110D   26202.49511387  .00018183  00000-0  56351-3 0  9999","l2":"2 69127  97.2861  38.3672 0001340  86.5876 273.5520 15.33482959 10865"},{"id":"69128","name":"STARLINK-37723","type":"PAYLOAD","l1":"1 69128U 26110E   26202.49241209  .00015889  00000-0  49322-3 0  9993","l2":"2 69128  97.2858  38.3707 0002188  89.0757 271.0737 15.33459450 10861"},{"id":"69129","name":"STARLINK-37720","type":"PAYLOAD","l1":"1 69129U 26110F   26202.29122064  .00001527  00000-0  49668-4 0  9997","l2":"2 69129  97.2863  38.1809 0001681  91.4888 268.6547 15.33415852 10834"},{"id":"69130","name":"STARLINK-37533","type":"PAYLOAD","l1":"1 69130U 26110G   26202.09272486  .00012100  00000-0  37647-3 0  9993","l2":"2 69130  97.2862  37.9960 0001868  97.0136 263.1319 15.33448979 10805"},{"id":"69131","name":"STARLINK-37530","type":"PAYLOAD","l1":"1 69131U 26110H   26202.09001134  .00009138  00000-0  28502-3 0  9991","l2":"2 69131  97.2856  38.0003 0002955  88.6752 271.4830 15.33445675 10807"},{"id":"69132","name":"STARLINK-37660","type":"PAYLOAD","l1":"1 69132U 26110J   26202.08728818  .00013701  00000-0  42593-3 0  9993","l2":"2 69132  97.2861  38.0001 0001591  93.6443 266.4982 15.33445221 10809"},{"id":"69133","name":"STARLINK-37633","type":"PAYLOAD","l1":"1 69133U 26110K   26202.08457015  .00013343  00000-0  41485-3 0  9993","l2":"2 69133  97.2852  38.0063 0001700  93.1744 266.9694 15.33447487 10800"},{"id":"69134","name":"STARLINK-37361","type":"PAYLOAD","l1":"1 69134U 26110L   26202.08184930  .00010699  00000-0  33323-3 0  9990","l2":"2 69134  97.2854  38.0117 0001537  98.4917 261.6500 15.33448201 10804"},{"id":"69135","name":"STARLINK-37372","type":"PAYLOAD","l1":"1 69135U 26110M   26202.27489675  .00012904  00000-0  40126-3 0  9996","l2":"2 69135  97.2876  38.2062 0001720  91.1069 269.0371 15.33451111 10837"},{"id":"69136","name":"STARLINK-37531","type":"PAYLOAD","l1":"1 69136U 26110N   26202.27217631  .00009916  00000-0  30902-3 0  9998","l2":"2 69136  97.2875  38.2119 0001580  93.5462 266.5962 15.33448737 10835"},{"id":"69137","name":"STARLINK-37662","type":"PAYLOAD","l1":"1 69137U 26110P   26202.53046117  .00033444  00000-0  10319-2 0  9999","l2":"2 69137  97.2848  38.4704 0001524 160.8686 199.2615 15.33499746 10879"},{"id":"69138","name":"STARLINK-37658","type":"PAYLOAD","l1":"1 69138U 26110Q   26202.52775840  .00015292  00000-0  47490-3 0  9993","l2":"2 69138  97.2873  38.4741 0001651  94.2860 265.8571 15.33453336 10870"},{"id":"69139","name":"STARLINK-37659","type":"PAYLOAD","l1":"1 69139U 26110R   26202.32927816  .00008073  00000-0  25208-3 0  9996","l2":"2 69139  97.2859  38.2837 0002336  67.5910 292.5580 15.33448041 10840"},{"id":"69140","name":"STARLINK-37653","type":"PAYLOAD","l1":"1 69140U 26110S   26202.06553280  .00015109  00000-0  46931-3 0  9993","l2":"2 69140  97.2830  38.0295 0000830  93.7648 266.3689 15.33451463 10800"},{"id":"69141","name":"STARLINK-37654","type":"PAYLOAD","l1":"1 69141U 26110T   26202.25858456  .00009838  00000-0  30666-3 0  9998","l2":"2 69141  97.2863  38.2282 0001961  92.3084 267.8383 15.33442931 10830"},{"id":"69142","name":"STARLINK-37655","type":"PAYLOAD","l1":"1 69142U 26110U   26202.51688048  .00015045  00000-0  46703-3 0  9992","l2":"2 69142  97.2866  38.4899 0002122  86.4316 273.7170 15.33470071 10872"},{"id":"69143","name":"STARLINK-37636","type":"PAYLOAD","l1":"1 69143U 26110V   26202.12263273  .00003666  00000-0  11584-3 0  9994","l2":"2 69143  97.2866  38.1091 0001552  91.6462 268.4959 15.33441703 10810"},{"id":"69144","name":"STARLINK-37638","type":"PAYLOAD","l1":"1 69144U 26110W   26202.11991122  .00018176  00000-0  56374-3 0  9993","l2":"2 69144  97.2857  38.1124 0000876 109.7285 250.4053 15.33458958 10816"}]}